     3.02           N: GNSS NAV DATA    E: Galileo          RINEX VERSION / TYPE
BINEX2RINEX  2.09   GSI, JAPAN          20210701 17:44:56UTCPGM / RUN BY / DATE
                                                            END OF HEADER
E33 2021 06 30 11 50 00-4.683799343184D-04 5.684341886081D-13 0.000000000000D+00
     1.190000000000D+02 5.565625000000D+01 2.736899717145D-09 3.105330135750D+00
     2.700835466385D-06 1.520148944110D-04 6.267800927162D-06 5.440609212875D+03
     3.018000000000D+05 6.146728992462D-08 2.015685006583D+00-1.024454832077D-07
     9.950943037977D-01 2.186562500000D+02 5.577656276915D-01-5.572017811193D-09
     1.160762636137D-10 5.130000000000D+02 2.164000000000D+03                   
     3.119999885559D+00 0.000000000000D+00-3.026798367500D-09-3.492459654808D-09
     3.024790000000D+05                                                         
E01 2021 06 30 11 50 00-1.140150823630D-03-7.958078640513D-12 0.000000000000D+00
     1.190000000000D+02 2.706250000000D+01 3.288708416478D-09 1.191296814065D+00
     1.380220055580D-06 1.063501695171D-04 5.651265382767D-06 5.440597434998D+03
     3.018000000000D+05-2.048909664154D-08-6.417327293726D-02 1.490116119385D-08
     9.778340180261D-01 2.304687500000D+02-1.730720247605D+00-5.658807140603D-09
    -9.500395729616D-11 5.130000000000D+02 2.164000000000D+03                   
     3.119999885559D+00 0.000000000000D+00 0.000000000000D+00 0.000000000000D+00
     3.024850000000D+05                                                         
E04 2021 06 30 11 50 00-8.033454068936D-04-8.057554623520D-12 0.000000000000D+00
     1.190000000000D+02-9.134375000000D+01 3.012268330210D-09 2.098947862426D+00
    -4.144385457039D-06 3.021885640919D-04 9.505078196526D-06 5.440626375198D+03
     3.018000000000D+05-1.005828380585D-07-2.162672550552D+00 1.862645149231D-08
     9.549431551355D-01 1.345312500000D+02-1.335905114885D+00-5.478442484834D-09
     3.571577341961D-11 5.130000000000D+02 2.164000000000D+03                   
     3.119999885559D+00 0.000000000000D+00-3.026798367500D-09-3.492459654808D-09
     3.024850000000D+05                                                         
E11 2021 06 30 12 00 00 5.783409345895D-03-5.056222107669D-11 0.000000000000D+00
     1.200000000000D+02 4.956250000000D+01 2.627966608215D-09 1.139542600878D+00
     2.199783921242D-06 5.059154937044D-04 5.982816219330D-06 5.440615640640D+03
     3.024000000000D+05-6.891787052155D-08 2.019054693549D+00-1.676380634308D-08
     9.919341696054D-01 2.290000000000D+02 1.004420491402D+00-5.477728169365D-09
     1.010756387775D-10 5.130000000000D+02 2.164000000000D+03                   
     3.119999885559D+00 0.000000000000D+00-1.303851604462D-08-1.420266926289D-08
     3.030790000000D+05                                                         
E12 2021 06 30 12 00 00 5.134517326951D-03-1.890043677122D-11 0.000000000000D+00
     1.200000000000D+02 4.668750000000D+01 2.730113720195D-09 2.349900555796D+00
     2.034008502960D-06 3.843439044431D-04 6.232410669327D-06 5.440609172821D+03
     3.024000000000D+05-5.215406417847D-08 2.019047253148D+00-4.842877388000D-08
     9.919473475715D-01 2.177500000000D+02 6.020927052693D-01-5.508800892240D-09
     5.785955293977D-11 5.130000000000D+02 2.164000000000D+03                   
     3.119999885559D+00 0.000000000000D+00-1.047737896442D-08-1.024454832077D-08
     3.030790000000D+05                                                         
E19 2021 06 30 12 00 00 3.151242854074D-04 9.464429240325D-12 0.000000000000D+00
     1.200000000000D+02-1.047187500000D+02 2.930479209079D-09-3.041005961350D+00
    -4.867091774940D-06 2.838226500899D-04 1.019611954689D-05 5.440626461029D+03
     3.024000000000D+05 6.146728992462D-08-2.162182139451D+00-1.098960638046D-07
     9.606242380382D-01 1.217812500000D+02-1.538621762367D+00-5.512015311848D-09
    -5.571660653459D-11 5.130000000000D+02 2.164000000000D+03                   
     3.119999885559D+00 0.000000000000D+00-3.492459654808D-09-3.725290298462D-09
     3.030850000000D+05                                                         
E21 2021 06 30 12 00 00-6.735810893588D-04-2.074784788419D-12 0.000000000000D+00
     1.200000000000D+02 2.271875000000D+01 3.291208520617D-09 2.684861926979D+00
     9.704381227493D-07 7.499766070396D-05 5.979090929031D-06 5.440605548859D+03
     3.024000000000D+05-1.676380634308D-08-6.703274381713D-02-5.587935447693D-09
     9.774068035223D-01 2.254375000000D+02-2.396663697726D+00-5.660235771540D-09
    -1.228622605635D-10 5.130000000000D+02 2.164000000000D+03                   
     3.119999885559D+00 0.000000000000D+00 2.095475792885D-09 2.328306436539D-09
     3.030850000000D+05                                                         
E01 2021 06 30 12 00 00-1.140155596659D-03-7.958078640513D-12 0.000000000000D+00
     1.200000000000D+02 2.700000000000D+01 3.283351050465D-09 1.265962281759D+00
     1.374632120132D-06 1.063577365130D-04 5.677342414856D-06 5.440597372055D+03
     3.024000000000D+05-1.303851604462D-08-6.417668738806D-02 1.862645149231D-08
     9.778339902306D-01 2.302500000000D+02-1.730999594738D+00-5.653806932324D-09
    -9.536111503035D-11 5.130000000000D+02 2.164000000000D+03                   
     3.119999885559D+00 0.000000000000D+00 0.000000000000D+00 0.000000000000D+00
     3.030850000000D+05                                                         
E04 2021 06 30 12 00 00-8.033501799218D-04-8.057554623520D-12 0.000000000000D+00
     1.200000000000D+02-9.146875000000D+01 3.015125592083D-09 2.173405687916D+00
    -4.144385457039D-06 3.022460732609D-04 9.495764970779D-06 5.440626255035D+03
     3.024000000000D+05-1.098960638046D-07-2.162675776287D+00 1.862645149231D-09
     9.549432385218D-01 1.350312500000D+02-1.335978273955D+00-5.475585222960D-09
     2.357241045694D-11 5.130000000000D+02 2.164000000000D+03                   
     3.119999885559D+00 0.000000000000D+00-3.026798367500D-09-3.492459654808D-09
     3.030850000000D+05                                                         
E01 2021 06 30 12 10 00-1.140160486102D-03-7.958078640513D-12 0.000000000000D+00
     1.210000000000D+02 2.690625000000D+01 3.278350842186D-09 1.340684538470D+00
     1.365318894386D-06 1.063692616299D-04 5.705282092094D-06 5.440597295761D+03
     3.030000000000D+05-9.313225746155D-09-6.418009745010D-02 2.048909664154D-08
     9.778339624352D-01 2.299687500000D+02-1.731335738203D+00-5.648806724045D-09
    -9.607543049875D-11 5.130000000000D+02 2.164000000000D+03                   
     3.119999885559D+00 0.000000000000D+00 0.000000000000D+00 0.000000000000D+00
     3.036850000000D+05                                                         
E19 2021 06 30 12 10 00 3.151298733428D-04 9.450218385609D-12 0.000000000000D+00
     1.210000000000D+02-1.062187500000D+02 2.930479209079D-09-2.966170376765D+00
    -4.934147000313D-06 2.836853964254D-04 1.019611954689D-05 5.440626831055D+03
     3.030000000000D+05 7.636845111847D-08-2.162185338852D+00-9.685754776001D-08
     9.606242058540D-01 1.217812500000D+02-1.539072556184D+00-5.521658570671D-09
    -6.393123442110D-11 5.130000000000D+02 2.164000000000D+03                   
     3.119999885559D+00 0.000000000000D+00-3.492459654808D-09-3.725290298462D-09
     3.036850000000D+05                                                         
E21 2021 06 30 12 10 00-6.735826609656D-04-2.103206497850D-12 0.000000000000D+00
     1.210000000000D+02 2.206250000000D+01 3.287636943275D-09 2.759047427343D+00
     9.071081876755D-07 7.508182898164D-05 5.960464477539D-06 5.440605367661D+03
     3.030000000000D+05-1.303851604462D-08-6.703614656458D-02-7.450580596924D-09
     9.774067186731D-01 2.256250000000D+02-2.396463437407D+00-5.662021560211D-09
    -1.210764718925D-10 5.130000000000D+02 2.164000000000D+03                   
     3.119999885559D+00 0.000000000000D+00 2.095475792885D-09 2.328306436539D-09
     3.036850000000D+05                                                         
E11 2021 06 30 12 10 00 5.783379077911D-03-5.057643193140D-11 0.000000000000D+00
     1.210000000000D+02 4.987500000000D+01 2.632252501025D-09 1.214022122906D+00
     2.197921276093D-06 5.059232935309D-04 5.975365638733D-06 5.440615545273D+03
     3.030000000000D+05-6.519258022308D-08 2.019051377114D+00-2.235174179077D-08
     9.919342427513D-01 2.286875000000D+02 1.004325902045D+00-5.473799434289D-09
     1.021471119801D-10 5.130000000000D+02 2.164000000000D+03                   
     3.119999885559D+00 0.000000000000D+00-1.303851604462D-08-1.420266926289D-08
     3.037690000000D+05                                                         
E27 2021 06 30 12 10 00-6.543472409248D-05-8.213874025387D-12 0.000000000000D+00
     1.210000000000D+02 1.796875000000D+01 3.274779264844D-09 2.403065166841D+00
     6.631016731262D-07 1.734130783007D-04 5.584210157394D-06 5.440603025436D+03
     3.030000000000D+05 2.421438694000D-08-6.703810248605D-02 2.235174179077D-08
     9.773787842523D-01 2.264687500000D+02-1.248474847234D+00-5.677379342781D-09
    -1.328626771209D-10 5.130000000000D+02 2.164000000000D+03                   
     3.119999885559D+00 0.000000000000D+00 1.862645149231D-09 2.095475792885D-09
     3.041890000000D+05                                                         
E11 2021 06 30 12 20 00 5.783348809928D-03-5.056222107669D-11 0.000000000000D+00
     1.220000000000D+02 5.037500000000D+01 2.638324182506D-09 1.288609315705D+00
     2.207234501839D-06 5.059494869784D-04 5.986541509628D-06 5.440615337372D+03
     3.036000000000D+05-6.146728992462D-08 2.019048069456D+00-2.607703208923D-08
     9.919343188231D-01 2.280000000000D+02 1.004123602419D+00-5.470227856947D-09
     1.028614274485D-10 5.130000000000D+02 2.164000000000D+03                   
     3.119999885559D+00 0.000000000000D+00-1.303851604462D-08-1.420266926289D-08
     3.042790000000D+05                                                         
